KUIPER-00027            
1 63740U 25088S   26066.29680037  .00006235  00000+0  84560-3 0  9999
2 63740  51.8998 106.1648 0000756  87.1087 272.9962 14.79960618 47264
KUIPER-00028            
1 63741U 25088T   26066.26573323  .00003917  00000+0  54261-3 0  9995
2 63741  51.8985 103.7714 0000758  51.7630 308.3400 14.79929227 47702
KUIPER-00029            
1 63742U 25088U   26065.86864492 -.00114249  00000+0 -14083-1 0  9990
2 63742  51.8999 103.1287 0000659 127.6020 232.5003 14.83146545 47204
KUIPER-00030            
1 63743U 25088V   26066.14562581  .00004314  00000+0  59425-3 0  9997
2 63743  51.8998 121.7954 0010825  63.0196 297.1870 14.79943666 47252
KUIPER-00031            
1 63744U 25088W   26066.27961351  .00006087  00000+0  75730-3 0  9996
2 63744  51.8990 106.4098 0002066 135.2053 224.9078 14.83640866 47198
KUIPER-00032            
1 63745U 25088X   26066.13301371  .00019815  00000+0  54423-3 0  9991
2 63745  51.8705  36.5862 0005343 103.9427 256.2154 15.37217041 49159
KUIPER-00033            
1 63746U 25088Y   26065.38801582  .00006627  00000+0  82610-3 0  9993
2 63746  51.9002 140.5379 0000822  42.9589 317.1439 14.83430130 47122
KUIPER-00034            
1 63747U 25088Z   26066.28632401  .00006030  00000+0  75251-3 0  9997
2 63747  51.9004  98.8804 0001792 344.9740  15.1170 14.83525573 47464
KUIPER-00035            
1 63748U 25088AA  26066.32487810  .00008442  00000+0  10482-2 0  9998
2 63748  51.8995 124.3794 0003976  67.3346 292.8038 14.83281901 47168
KUIPER-00037            
1 63749U 25088AB  26066.14290166  .00005551  00000+0  75601-3 0  9998
2 63749  51.8988 124.3218 0000854  61.7791 298.3257 14.79966798 47934
KUIPER-00038            
1 63750U 25088AC  26066.29414401 -.00002307  00000+0 -27362-3 0  9995
2 63750  51.9012 108.6815 0000692 102.8103 257.2937 14.79944347 47167
KUIPER-00039            
1 64500U 25134A   26065.86166621  .00004381  00000+0  60317-3 0  9990
2 64500  51.8998 245.5975 0001077  68.5085 291.5992 14.79946325 39651
KUIPER-00040            
1 64501U 25134B   26066.25418188  .00002454  00000+0  35017-3 0  9991
2 64501  51.9023 255.0028 0015589 260.9563  98.9635 14.79986823 39558
KUIPER-00041            
1 64502U 25134C   26065.24738240  .00004415  00000+0  62516-3 0  9997
2 64502  51.8984 260.8785 0007213 254.0812 105.9356 14.78717324 39381
KUIPER-00042            
1 64503U 25134D   26065.51411736  .00004650  00000+0  63795-3 0  9997
2 64503  51.8972 255.6339 0007100 270.8636  89.1513 14.79965457 39483
KUIPER-00043            
1 64504U 25134E   26064.89147065  .00004646  00000+0  58233-3 0  9995
2 64504  51.9013 249.9165 0000994 325.3550  34.7349 14.83803217 39516
