[{"OBJECT_NAME":"KUIPER-00027","OBJECT_ID":"2025-088S","EPOCH":"2026-03-07T07:07:23.551968","MEAN_MOTION":14.79960618,"ECCENTRICITY":7.564e-5,"INCLINATION":51.8998,"RA_OF_ASC_NODE":106.1648,"ARG_OF_PERICENTER":87.1087,"MEAN_ANOMALY":272.9962,"EPHEMERIS_TYPE":0,"CLASSIFICATION_TYPE":"U","NORAD_CAT_ID":63740,"ELEMENT_SET_NO":999,"REV_AT_EPOCH":4726,"BSTAR":0.00084559542,"MEAN_MOTION_DOT":6.235e-5,"MEAN_MOTION_DDOT":0},{"OBJECT_NAME":"KUIPER-00028","OBJECT_ID":"2025-088T","EPOCH":"2026-03-07T06:22:39.351072","MEAN_MOTION":14.79929227,"ECCENTRICITY":7.586e-5,"INCLINATION":51.8985,"RA_OF_ASC_NODE":103.7714,"ARG_OF_PERICENTER":51.763,"MEAN_ANOMALY":308.34,"EPHEMERIS_TYPE":0,"CLASSIFICATION_TYPE":"U","NORAD_CAT_ID":63741,"ELEMENT_SET_NO":999,"REV_AT_EPOCH":4770,"BSTAR":0.00054260572,"MEAN_MOTION_DOT":3.917e-5,"MEAN_MOTION_DDOT":0},{"OBJECT_NAME":"KUIPER-00029","OBJECT_ID":"2025-088U","EPOCH":"2026-03-06T20:50:50.921088","MEAN_MOTION":14.83146545,"ECCENTRICITY":6.592e-5,"INCLINATION":51.8999,"RA_OF_ASC_NODE":103.1287,"ARG_OF_PERICENTER":127.602,"MEAN_ANOMALY":232.5003,"EPHEMERIS_TYPE":0,"CLASSIFICATION_TYPE":"U","NORAD_CAT_ID":63742,"ELEMENT_SET_NO":999,"REV_AT_EPOCH":4720,"BSTAR":-0.014083225,"MEAN_MOTION_DOT":-0.00114249,"MEAN_MOTION_DDOT":0},{"OBJECT_NAME":"KUIPER-00030","OBJECT_ID":"2025-088V","EPOCH":"2026-03-07T03:29:42.069984","MEAN_MOTION":14.79943666,"ECCENTRICITY":0.00108256,"INCLINATION":51.8998,"RA_OF_ASC_NODE":121.7954,"ARG_OF_PERICENTER":63.0196,"MEAN_ANOMALY":297.187,"EPHEMERIS_TYPE":0,"CLASSIFICATION_TYPE":"U","NORAD_CAT_ID":63743,"ELEMENT_SET_NO":999,"REV_AT_EPOCH":4725,"BSTAR":0.00059424611,"MEAN_MOTION_DOT":4.314e-5,"MEAN_MOTION_DDOT":0},{"OBJECT_NAME":"KUIPER-00031","OBJECT_ID":"2025-088W","EPOCH":"2026-03-07T06:42:38.607264","MEAN_MOTION":14.83640866,"ECCENTRICITY":0.0002066,"INCLINATION":51.899,"RA_OF_ASC_NODE":106.4098,"ARG_OF_PERICENTER":135.2053,"MEAN_ANOMALY":224.9078,"EPHEMERIS_TYPE":0,"CLASSIFICATION_TYPE":"U","NORAD_CAT_ID":63744,"ELEMENT_SET_NO":999,"REV_AT_EPOCH":4719,"BSTAR":0.00075729795,"MEAN_MOTION_DOT":6.087e-5,"MEAN_MOTION_DDOT":0},{"OBJECT_NAME":"KUIPER-00032","OBJECT_ID":"2025-088X","EPOCH":"2026-03-07T03:11:32.384544","MEAN_MOTION":15.37217041,"ECCENTRICITY":0.00053437,"INCLINATION":51.8705,"RA_OF_ASC_NODE":36.5862,"ARG_OF_PERICENTER":103.9427,"MEAN_ANOMALY":256.2154,"EPHEMERIS_TYPE":0,"CLASSIFICATION_TYPE":"U","NORAD_CAT_ID":63745,"ELEMENT_SET_NO":999,"REV_AT_EPOCH":4915,"BSTAR":0.0005442313,"MEAN_MOTION_DOT":0.00019815,"MEAN_MOTION_DDOT":0},{"OBJECT_NAME":"KUIPER-00033","OBJECT_ID":"2025-088Y","EPOCH":"2026-03-06T09:18:44.566848","MEAN_MOTION":14.8343013,"ECCENTRICITY":8.228e-5,"INCLINATION":51.9002,"RA_OF_ASC_NODE":140.5379,"ARG_OF_PERICENTER":42.9589,"MEAN_ANOMALY":317.1439,"EPHEMERIS_TYPE":0,"CLASSIFICATION_TYPE":"U","NORAD_CAT_ID":63746,"ELEMENT_SET_NO":999,"REV_AT_EPOCH":4712,"BSTAR":0.0008260957,"MEAN_MOTION_DOT":6.627e-5,"MEAN_MOTION_DDOT":0},{"OBJECT_NAME":"KUIPER-00034","OBJECT_ID":"2025-088Z","EPOCH":"2026-03-07T06:52:18.394464","MEAN_MOTION":14.83525573,"ECCENTRICITY":0.00017922,"INCLINATION":51.9004,"RA_OF_ASC_NODE":98.8804,"ARG_OF_PERICENTER":344.974,"MEAN_ANOMALY":15.117,"EPHEMERIS_TYPE":0,"CLASSIFICATION_TYPE":"U","NORAD_CAT_ID":63747,"ELEMENT_SET_NO":999,"REV_AT_EPOCH":4746,"BSTAR":0.00075251085,"MEAN_MOTION_DOT":6.03e-5,"MEAN_MOTION_DDOT":0},{"OBJECT_NAME":"KUIPER-00035","OBJECT_ID":"2025-088AA","EPOCH":"2026-03-07T07:47:49.467840","MEAN_MOTION":14.83281901,"ECCENTRICITY":0.00039765,"INCLINATION":51.8995,"RA_OF_ASC_NODE":124.3794,"ARG_OF_PERICENTER":67.3346,"MEAN_ANOMALY":292.8038,"EPHEMERIS_TYPE":0,"CLASSIFICATION_TYPE":"U","NORAD_CAT_ID":63748,"ELEMENT_SET_NO":999,"REV_AT_EPOCH":4716,"BSTAR":0.0010481541,"MEAN_MOTION_DOT":8.442e-5,"MEAN_MOTION_DDOT":0},{"OBJECT_NAME":"KUIPER-00037","OBJECT_ID":"2025-088AB","EPOCH":"2026-03-07T03:25:46.703424","MEAN_MOTION":14.79966798,"ECCENTRICITY":8.548e-5,"INCLINATION":51.8988,"RA_OF_ASC_NODE":124.3218,"ARG_OF_PERICENTER":61.7791,"MEAN_ANOMALY":298.3257,"EPHEMERIS_TYPE":0,"CLASSIFICATION_TYPE":"U","NORAD_CAT_ID":63749,"ELEMENT_SET_NO":999,"REV_AT_EPOCH":4793,"BSTAR":0.00075601033,"MEAN_MOTION_DOT":5.551e-5,"MEAN_MOTION_DDOT":0},{"OBJECT_NAME":"KUIPER-00038","OBJECT_ID":"2025-088AC","EPOCH":"2026-03-07T07:03:34.042464","MEAN_MOTION":14.79944347,"ECCENTRICITY":6.921e-5,"INCLINATION":51.9012,"RA_OF_ASC_NODE":108.6815,"ARG_OF_PERICENTER":102.8103,"MEAN_ANOMALY":257.2937,"EPHEMERIS_TYPE":0,"CLASSIFICATION_TYPE":"U","NORAD_CAT_ID":63750,"ELEMENT_SET_NO":999,"REV_AT_EPOCH":4716,"BSTAR":-0.00027361822,"MEAN_MOTION_DOT":-2.307e-5,"MEAN_MOTION_DDOT":0},{"OBJECT_NAME":"KUIPER-00039","OBJECT_ID":"2025-134A","EPOCH":"2026-03-06T20:40:47.960544","MEAN_MOTION":14.79946325,"ECCENTRICITY":0.00010776,"INCLINATION":51.8998,"RA_OF_ASC_NODE":245.5975,"ARG_OF_PERICENTER":68.5085,"MEAN_ANOMALY":291.5992,"EPHEMERIS_TYPE":0,"CLASSIFICATION_TYPE":"U","NORAD_CAT_ID":64500,"ELEMENT_SET_NO":999,"REV_AT_EPOCH":3965,"BSTAR":0.00060317154,"MEAN_MOTION_DOT":4.381e-5,"MEAN_MOTION_DDOT":0},{"OBJECT_NAME":"KUIPER-00040","OBJECT_ID":"2025-134B","EPOCH":"2026-03-07T06:06:01.314432","MEAN_MOTION":14.79986823,"ECCENTRICITY":0.00155897,"INCLINATION":51.9023,"RA_OF_ASC_NODE":255.0028,"ARG_OF_PERICENTER":260.9563,"MEAN_ANOMALY":98.9635,"EPHEMERIS_TYPE":0,"CLASSIFICATION_TYPE":"U","NORAD_CAT_ID":64501,"ELEMENT_SET_NO":999,"REV_AT_EPOCH":3955,"BSTAR":0.00035016748,"MEAN_MOTION_DOT":2.454e-5,"MEAN_MOTION_DDOT":0},{"OBJECT_NAME":"KUIPER-00041","OBJECT_ID":"2025-134C","EPOCH":"2026-03-06T05:56:13.839360","MEAN_MOTION":14.78717324,"ECCENTRICITY":0.00072132,"INCLINATION":51.8984,"RA_OF_ASC_NODE":260.8785,"ARG_OF_PERICENTER":254.0812,"MEAN_ANOMALY":105.9356,"EPHEMERIS_TYPE":0,"CLASSIFICATION_TYPE":"U","NORAD_CAT_ID":64502,"ELEMENT_SET_NO":999,"REV_AT_EPOCH":3938,"BSTAR":0.00062516473,"MEAN_MOTION_DOT":4.415e-5,"MEAN_MOTION_DDOT":0},{"OBJECT_NAME":"KUIPER-00042","OBJECT_ID":"2025-134D","EPOCH":"2026-03-06T12:20:19.739904","MEAN_MOTION":14.79965457,"ECCENTRICITY":0.00071003,"INCLINATION":51.8972,"RA_OF_ASC_NODE":255.6339,"ARG_OF_PERICENTER":270.8636,"MEAN_ANOMALY":89.1513,"EPHEMERIS_TYPE":0,"CLASSIFICATION_TYPE":"U","NORAD_CAT_ID":64503,"ELEMENT_SET_NO":999,"REV_AT_EPOCH":3948,"BSTAR":0.00063794603,"MEAN_MOTION_DOT":4.65e-5,"MEAN_MOTION_DDOT":0},{"OBJECT_NAME":"KUIPER-00043","OBJECT_ID":"2025-134E","EPOCH":"2026-03-05T21:23:43.064160","MEAN_MOTION":14.83803217,"ECCENTRICITY":9.947e-5,"INCLINATION":51.9013,"RA_OF_ASC_NODE":249.9165,"ARG_OF_PERICENTER":325.355,"MEAN_ANOMALY":34.7349,"EPHEMERIS_TYPE":0,"CLASSIFICATION_TYPE":"U","NORAD_CAT_ID":64504,"ELEMENT_SET_NO":999,"REV_AT_EPOCH":3951,"BSTAR":0.00058232696,"MEAN_MOTION_DOT":4.646e-5,"MEAN_MOTION_DDOT":0}]
